start=new Date('2022-09-04T00:00:00.000Z').valueOf();
sats=[{"EPHEMERIS_TYPE":"0","NORAD_CAT_ID":"53388","ELEMENT_SET_NO":"999","INCLINATION":"53.2171","REV_AT_EPOCH":"130","BSTAR":"-0.01781900000000","FILE":"3556957","TIME_SYSTEM":"UTC","MEAN_ANOMALY":"120.7770","MEAN_ELEMENT_THEORY":"SGP4","REF_FRAME":"TEME","ECCENTRICITY":"0.00015240","TLE_LINE2":"2 53388  53.2171 126.1049 0001524  51.6362 120.7770 15.55364431  1301","COUNTRY_CODE":"US","GP_ID":"211674200","PERIOD":"92.583","APOAPSIS":"402.129","CLASSIFICATION_TYPE":"U","OBJECT_NAME":"STARLINK-4522","OBJECT_ID":"2022-097A","MEAN_MOTION":"15.55364431","LAUNCH_DATE":"2022-08-10","PERIAPSIS":"400.062","RA_OF_ASC_NODE":"126.1049","CENTER_NAME":"EARTH","EPOCH":"2022-09-03T22:00:00.999936","SEMIMAJOR_AXIS":"6779.230","MEAN_MOTION_DOT":"-0.01115059","ARG_OF_PERICENTER":"51.6362","RCS_SIZE":"LARGE","TLE_LINE1":"1 53388U 22097A   22246.91667824 -.01115059  00000-0 -17819-1 0  9997","MEAN_MOTION_DDOT":"0.0000000000000","OBJECT_TYPE":"PAYLOAD","DECAY_DATE":null,"SITE":"AFETR"},{"ELEMENT_SET_NO":"999","INCLINATION":"53.2171","REV_AT_EPOCH":"130","EPHEMERIS_TYPE":"0","NORAD_CAT_ID":"53389","ECCENTRICITY":"0.00014220","COUNTRY_CODE":"US","GP_ID":"211673912","TLE_LINE2":"2 53389  53.2171 126.1241 0001422  59.5792 114.4030 15.55379105  1300","TIME_SYSTEM":"UTC","MEAN_ANOMALY":"114.4030","MEAN_ELEMENT_THEORY":"SGP4","BSTAR":"-0.01781100000000","FILE":"3556957","REF_FRAME":"TEME","MEAN_MOTION":"15.55379105","LAUNCH_DATE":"2022-08-10","CLASSIFICATION_TYPE":"U","APOAPSIS":"402.017","OBJECT_NAME":"STARLINK-4523","OBJECT_ID":"2022-097B","RA_OF_ASC_NODE":"126.1241","PERIAPSIS":"400.089","PERIOD":"92.582","RCS_SIZE":"LARGE","TLE_LINE1":"1 53389U 22097B   22246.91667824 -.01115124  00000-0 -17811-1 0  9993","OBJECT_TYPE":"PAYLOAD","DECAY_DATE":null,"SITE":"AFETR","MEAN_MOTION_DDOT":"0.0000000000000","EPOCH":"2022-09-03T22:00:00.999936","CENTER_NAME":"EARTH","ARG_OF_PERICENTER":"59.5792","SEMIMAJOR_AXIS":"6779.188","MEAN_MOTION_DOT":"-0.01115124"},{"PERIOD":"92.582","RA_OF_ASC_NODE":"126.1148","PERIAPSIS":"400.074","OBJECT_NAME":"STARLINK-4517","OBJECT_ID":"2022-097C","CLASSIFICATION_TYPE":"U","APOAPSIS":"402.074","LAUNCH_DATE":"2022-08-10","MEAN_MOTION":"15.55371760","MEAN_MOTION_DOT":"-0.01115092","SEMIMAJOR_AXIS":"6779.209","ARG_OF_PERICENTER":"55.0460","CENTER_NAME":"EARTH","EPOCH":"2022-09-03T22:00:00.999936","MEAN_MOTION_DDOT":"0.0000000000000","SITE":"AFETR","DECAY_DATE":null,"OBJECT_TYPE":"PAYLOAD","RCS_SIZE":"LARGE","TLE_LINE1":"1 53390U 22097C   22246.91667824 -.01115092  00000-0 -17815-1 0  9993","NORAD_CAT_ID":"53390","EPHEMERIS_TYPE":"0","REV_AT_EPOCH":"130","INCLINATION":"53.2171","ELEMENT_SET_NO":"999","REF_FRAME":"TEME","BSTAR":"-0.01781500000000","FILE":"3556957","MEAN_ELEMENT_THEORY":"SGP4","MEAN_ANOMALY":"118.1518","TIME_SYSTEM":"UTC","TLE_LINE2":"2 53390  53.2171 126.1148 0001475  55.0460 118.1518 15.55371760  1300","GP_ID":"211674526","COUNTRY_CODE":"US","ECCENTRICITY":"0.00014750"},{"EPOCH":"2022-09-03T22:00:00.999936","CENTER_NAME":"EARTH","ARG_OF_PERICENTER":"56.1780","SEMIMAJOR_AXIS":"6779.167","MEAN_MOTION_DOT":"-0.01115069","RCS_SIZE":"LARGE","TLE_LINE1":"1 53391U 22097D   22246.91667824 -.01115069  00000-0 -17805-1 0  9997","OBJECT_TYPE":"PAYLOAD","DECAY_DATE":null,"SITE":"AFETR","MEAN_MOTION_DDOT":"0.0000000000000","PERIOD":"92.581","MEAN_MOTION":"15.55386375","LAUNCH_DATE":"2022-08-10","CLASSIFICATION_TYPE":"U","APOAPSIS":"402.023","OBJECT_NAME":"STARLINK-4521","OBJECT_ID":"2022-097D","RA_OF_ASC_NODE":"126.1341","PERIAPSIS":"400.041","TIME_SYSTEM":"UTC","MEAN_ANOMALY":"118.5886","MEAN_ELEMENT_THEORY":"SGP4","FILE":"3556957","BSTAR":"-0.01780500000000","REF_FRAME":"TEME","ECCENTRICITY":"0.00014620","COUNTRY_CODE":"US","GP_ID":"211674060","TLE_LINE2":"2 53391  53.2171 126.1341 0001462  56.1780 118.5886 15.55386375  1309","EPHEMERIS_TYPE":"0","NORAD_CAT_ID":"53391","ELEMENT_SET_NO":"999","INCLINATION":"53.2171","REV_AT_EPOCH":"130"},{"REV_AT_EPOCH":"130","INCLINATION":"53.2172","ELEMENT_SET_NO":"999","NORAD_CAT_ID":"53392","EPHEMERIS_TYPE":"0","TLE_LINE2":"2 53392  53.2172 126.1544 0001441  57.9887 118.3465 15.55400987  1307","GP_ID":"211673786","COUNTRY_CODE":"US","ECCENTRICITY":"0.00014410","REF_FRAME":"TEME","BSTAR":"-0.01779500000000","FILE":"3556957","MEAN_ANOMALY":"118.3465","MEAN_ELEMENT_THEORY":"SGP4","TIME_SYSTEM":"UTC","RA_OF_ASC_NODE":"126.1544","PERIAPSIS":"400.012","OBJECT_NAME":"STARLINK-4535","OBJECT_ID":"2022-097E","CLASSIFICATION_TYPE":"U","APOAPSIS":"401.966","LAUNCH_DATE":"2022-08-10","MEAN_MOTION":"15.55400987","PERIOD":"92.581","MEAN_MOTION_DDOT":"0.0000000000000","DECAY_DATE":null,"SITE":"AFETR","OBJECT_TYPE":"PAYLOAD","TLE_LINE1":"1 53392U 22097E   22246.91667824 -.01115043  00000-0 -17795-1 0  9998","RCS_SIZE":"LARGE","MEAN_MOTION_DOT":"-0.01115043","SEMIMAJOR_AXIS":"6779.124","ARG_OF_PERICENTER":"57.9887","CENTER_NAME":"EARTH","EPOCH":"2022-09-03T22:00:00.999936"},{"EPOCH":"2022-09-03T22:00:00.999936","CENTER_NAME":"EARTH","ARG_OF_PERICENTER":"64.0100","MEAN_MOTION_DOT":"-0.01115149","SEMIMAJOR_AXIS":"6779.145","TLE_LINE1":"1 53393U 22097F   22246.91667824 -.01115149  00000-0 -17802-1 0  9995","RCS_SIZE":"LARGE","SITE":"AFETR","DECAY_DATE":null,"OBJECT_TYPE":"PAYLOAD","MEAN_MOTION_DDOT":"0.0000000000000","PERIOD":"92.581","LAUNCH_DATE":"2022-08-10","MEAN_MOTION":"15.55393744","OBJECT_NAME":"STARLINK-4530","OBJECT_ID":"2022-097F","APOAPSIS":"401.946","CLASSIFICATION_TYPE":"U","PERIAPSIS":"400.075","RA_OF_ASC_NODE":"126.1441","MEAN_ANOMALY":"111.5409","MEAN_ELEMENT_THEORY":"SGP4","TIME_SYSTEM":"UTC","BSTAR":"-0.01780200000000","FILE":"3556957","REF_FRAME":"TEME","ECCENTRICITY":"0.00013800","GP_ID":"211673499","COUNTRY_CODE":"US","TLE_LINE2":"2 53393  53.2171 126.1441 0001380  64.0100 111.5409 15.55393744  1307","EPHEMERIS_TYPE":"0","NORAD_CAT_ID":"53393","INCLINATION":"53.2171","ELEMENT_SET_NO":"999","REV_AT_EPOCH":"130"},{"ELEMENT_SET_NO":"999","INCLINATION":"53.2174","REV_AT_EPOCH":"130","EPHEMERIS_TYPE":"0","NORAD_CAT_ID":"53394","ECCENTRICITY":"0.00011630","GP_ID":"211674349","COUNTRY_CODE":"US","TLE_LINE2":"2 53394  53.2174 125.2908 0001163  72.0809 191.8332 15.72421765  1303","MEAN_ANOMALY":"191.8332","MEAN_ELEMENT_THEORY":"SGP4","TIME_SYSTEM":"UTC","FILE":"3556957","BSTAR":"-0.00268060000000","REF_FRAME":"TEME","LAUNCH_DATE":"2022-08-10","MEAN_MOTION":"15.72421765","OBJECT_ID":"2022-097G","OBJECT_NAME":"STARLINK-4544","CLASSIFICATION_TYPE":"U","APOAPSIS":"352.763","RA_OF_ASC_NODE":"125.2908","PERIAPSIS":"351.197","PERIOD":"91.578","TLE_LINE1":"1 53394U 22097G   22246.91667824 -.00349756  00000-0 -26806-2 0  9993","RCS_SIZE":"LARGE","DECAY_DATE":null,"SITE":"AFETR","OBJECT_TYPE":"PAYLOAD","MEAN_MOTION_DDOT":"0.0000000000000","EPOCH":"2022-09-03T22:00:00.999936","CENTER_NAME":"EARTH","ARG_OF_PERICENTER":"72.0809","MEAN_MOTION_DOT":"-0.00349756","SEMIMAJOR_AXIS":"6730.115"},{"TIME_SYSTEM":"UTC","MEAN_ELEMENT_THEORY":"SGP4","MEAN_ANOMALY":"114.1165","BSTAR":"-0.01779100000000","FILE":"3556957","REF_FRAME":"TEME","ECCENTRICITY":"0.00013890","COUNTRY_CODE":"US","GP_ID":"211673647","TLE_LINE2":"2 53395  53.2172 126.1638 0001389  63.0028 114.1165 15.55408336  1307","EPHEMERIS_TYPE":"0","NORAD_CAT_ID":"53395","ELEMENT_SET_NO":"999","INCLINATION":"53.2172","REV_AT_EPOCH":"130","EPOCH":"2022-09-03T22:00:00.999936","CENTER_NAME":"EARTH","ARG_OF_PERICENTER":"63.0028","SEMIMAJOR_AXIS":"6779.103","MEAN_MOTION_DOT":"-0.01115076","RCS_SIZE":"LARGE","TLE_LINE1":"1 53395U 22097H   22246.91667824 -.01115076  00000-0 -17791-1 0  9993","OBJECT_TYPE":"PAYLOAD","SITE":"AFETR","DECAY_DATE":null,"MEAN_MOTION_DDOT":"0.0000000000000","PERIOD":"92.580","MEAN_MOTION":"15.55408336","LAUNCH_DATE":"2022-08-10","APOAPSIS":"401.910","CLASSIFICATION_TYPE":"U","OBJECT_ID":"2022-097H","OBJECT_NAME":"STARLINK-4534","RA_OF_ASC_NODE":"126.1638","PERIAPSIS":"400.026"},{"ECCENTRICITY":"0.00013870","TLE_LINE2":"2 53396  53.2172 126.2035 0001387  63.4468 116.8084 15.55437542  1300","GP_ID":"211674201","COUNTRY_CODE":"US","FILE":"3556957","BSTAR":"-0.01777000000000","MEAN_ANOMALY":"116.8084","MEAN_ELEMENT_THEORY":"SGP4","TIME_SYSTEM":"UTC","REF_FRAME":"TEME","ELEMENT_SET_NO":"999","INCLINATION":"53.2172","REV_AT_EPOCH":"130","EPHEMERIS_TYPE":"0","NORAD_CAT_ID":"53396","RCS_SIZE":"LARGE","TLE_LINE1":"1 53396U 22097J   22246.91667824 -.01114978  00000-0 -17770-1 0  9991","MEAN_MOTION_DDOT":"0.0000000000000","SITE":"AFETR","DECAY_DATE":null,"OBJECT_TYPE":"PAYLOAD","CENTER_NAME":"EARTH","EPOCH":"2022-09-03T22:00:00.999936","MEAN_MOTION_DOT":"-0.01114978","SEMIMAJOR_AXIS":"6779.018","ARG_OF_PERICENTER":"63.4468","OBJECT_ID":"2022-097J","OBJECT_NAME":"STARLINK-4524","CLASSIFICATION_TYPE":"U","APOAPSIS":"401.823","LAUNCH_DATE":"2022-08-10","MEAN_MOTION":"15.55437542","RA_OF_ASC_NODE":"126.2035","PERIAPSIS":"399.943","PERIOD":"92.578"},{"OBJECT_ID":"2022-097K","OBJECT_NAME":"STARLINK-4515","APOAPSIS":"401.894","CLASSIFICATION_TYPE":"U","LAUNCH_DATE":"2022-08-10","MEAN_MOTION":"15.55415629","RA_OF_ASC_NODE":"126.1737","PERIAPSIS":"399.999","PERIOD":"92.580","RCS_SIZE":"LARGE","TLE_LINE1":"1 53397U 22097K   22246.91667824 -.01115068  00000-0 -17786-1 0  9990","MEAN_MOTION_DDOT":"0.0000000000000","SITE":"AFETR","DECAY_DATE":null,"OBJECT_TYPE":"PAYLOAD","CENTER_NAME":"EARTH","EPOCH":"2022-09-03T22:00:00.999936","MEAN_MOTION_DOT":"-0.01115068","SEMIMAJOR_AXIS":"6779.082","ARG_OF_PERICENTER":"62.1590","ELEMENT_SET_NO":"999","INCLINATION":"53.2172","REV_AT_EPOCH":"130","EPHEMERIS_TYPE":"0","NORAD_CAT_ID":"53397","ECCENTRICITY":"0.00013980","TLE_LINE2":"2 53397  53.2172 126.1737 0001398  62.1590 115.7444 15.55415629  1303","GP_ID":"211673913","COUNTRY_CODE":"US","BSTAR":"-0.01778600000000","FILE":"3556957","MEAN_ANOMALY":"115.7444","MEAN_ELEMENT_THEORY":"SGP4","TIME_SYSTEM":"UTC","REF_FRAME":"TEME"}];
